{
  "type": "FeatureCollection",
  "features": [
    {
      "type": "Feature",
      "properties": {
        "id": "zone_1",
        "type": "no_go",
        "enabled": true
      },
      "geometry": {
        "type": "Polygon",
        "coordinates": [
          [
            [
              -64.2412568628788,
              -31.485712141143466
            ],
            [
              -64.24091085791588,
              -31.485702994701928
            ],
            [
              -64.24091622233391,
              -31.485592094027197
            ],
            [
              -64.2412568628788,
              -31.485712141143466
            ]
          ]
        ]
      }
    }
  ]
}
